[{"OBJECT_NAME":"YAOGAN-47","OBJECT_ID":"2025-289A","EPOCH":"2026-03-09T23:10:46.642368","MEAN_MOTION":15.23707396,"ECCENTRICITY":0.00012775,"INCLINATION":97.5108,"RA_OF_ASC_NODE":139.261,"ARG_OF_PERICENTER":63.9903,"MEAN_ANOMALY":296.1465,"EPHEMERIS_TYPE":0,"CLASSIFICATION_TYPE":"U","NORAD_CAT_ID":66988,"ELEMENT_SET_NO":999,"REV_AT_EPOCH":1382,"BSTAR":0.00032587728,"MEAN_MOTION_DOT":7.755e-5,"MEAN_MOTION_DDOT":0},{"OBJECT_NAME":"SCORPION (RS89S)","OBJECT_ID":"2025-313AX","EPOCH":"2026-03-09T23:09:54.194112","MEAN_MOTION":15.2196038,"ECCENTRICITY":0.00105059,"INCLINATION":97.4004,"RA_OF_ASC_NODE":145.3058,"ARG_OF_PERICENTER":344.4953,"MEAN_ANOMALY":15.596,"EPHEMERIS_TYPE":0,"CLASSIFICATION_TYPE":"U","NORAD_CAT_ID":67293,"ELEMENT_SET_NO":999,"REV_AT_EPOCH":1086,"BSTAR":0.00025386995,"MEAN_MOTION_DOT":5.728e-5,"MEAN_MOTION_DDOT":0}]
